{
  "type": "FeatureCollection",
  "features": [
    {
      "type": "Feature",
      "properties": {
        "norad_id": 66664,
        "name": "SOYUZ-MS 28",
        "group": "last-30-days",
        "lat": -21.21264738015191,
        "lon": 31.318538309803053,
        "alt_km": 419.5514549365935,
        "timestamp": "2025-12-02T10:50:46.054134+00:00",
        "meta_object_name": "SOYUZ-MS 28",
        "meta_object_id": "2025-275A",
        "meta_epoch": "2025-12-01T21:34:10.812000",
        "meta_mean_motion": 15.49234272,
        "meta_eccentricity": 0.0003628,
        "meta_inclination": 51.6307,
        "meta_ra_of_asc_node": 196.1486,
        "meta_arg_of_pericenter": 192.4733,
        "meta_mean_anomaly": 167.6166,
        "meta_ephemeris_type": 0,
        "meta_classification_type": "U",
        "meta_norad_cat_id": 66664,
        "meta_element_set_no": 999,
        "meta_rev_at_epoch": 76,
        "meta_bstar": 0.0001829,
        "meta_mean_motion_dot": 9.722e-05,
        "meta_mean_motion_ddot": 0,
        "tle_line1": "1 66664U 25275A   25335.89873625  .00009722  00000+0  18290-3 0  9997",
        "tle_line2": "2 66664  51.6307 196.1486 0003628 192.4733 167.6166 15.49234272   760"
      },
      "geometry": {
        "type": "Point",
        "coordinates": [
          31.318538309803053,
          -21.21264738015191
        ]
      }
    }
  ]
}